{
  "norad_id": 48400,
  "name": "STARLINK-2576",
  "history": [
    {
      "epoch": "2026-03-28T19:54:48.158784Z",
      "apogee_km": 476.0581623106673,
      "perigee_km": 474.1924301831368,
      "latitude_deg": -7.074497798690165e-06,
      "longitude_deg": 118.76508387836326,
      "height_km": 475.79950463427286,
      "semi_major_axis_km": 6853.262296246901,
      "eccentricity": 0.00013612,
      "inclination_deg": 53.1585,
      "raan_deg": 243.7103,
      "arg_perigee_deg": 76.1284,
      "mean_anomaly_deg": 283.9868,
      "mean_motion_rev_day": 15.30230067
    }
  ]
}