{"fetched_at":"2026-03-29T16:36:15Z","count":15609,"tles":[{"name":"STARLINK-2576","line1":"1 48400U 21038AZ  26087.82972406  .00011517  00000+0  40000-3 0  9992","line2":"2 48400  53.1585 243.7103 0001361  76.1284 283.9868 15.30230067270374","category":"Starlink"}]}